K13L07K 20.5   0.15 K1528 237.68374   33.54107   92.21129   21.52913  0.3473233  0.83103826   1.1204403  5 MPO266958   115   1   24 days 0.31 M-v 3Eh MPCALB     2803          2013 LK7           20130630
K13L16D 16.1   0.15 K1528   0.67102  186.06315   25.79809  154.74784  0.9679347  0.00139433  79.3522430  0 MPO288535    54   2 2013-2014 0.38 M-v 38h MPCADO     000A          2013 LD16          20140223
K13L16E 18.5   0.15 K1528 136.64783  198.13956   81.82758   32.84119  0.6075377  0.24000385   2.5644284  2 MPO279269   140   1  244 days 0.42 M-v 3Eh MPCADO     A804          2013 LE16          20140101
K13L16F 21.9   0.15 K1528 178.90043  175.95602  169.36317    9.09597  0.5934648  0.33483833   2.0538999  6 MPO268507    64   1   37 days 0.46 M-v 3Eh MPCALB     2803          2013 LF16          20130714
K13L16G 19.3   0.15 K1528 103.43778  209.46189  232.84222   11.15184  0.4080390  0.48702831   1.5999261  6 MPO266958    50   1   28 days 0.34 M-v 3Eh MPCADO     A803          2013 LG16          20130705
K13L16H 18.9   0.15 K1528  97.78594  201.17744  164.54305    8.60505  0.7796248  0.19150448   2.9809184  3 MPO279270   139   2 2013-2014 0.31 M-v 3Eh MPCALB     0803          2013 LH16          20140109
K13L25H 17.1   0.15 K1528  69.92525  356.85197  129.80803   29.51495  0.8321758  0.10444467   4.4655868  5 MPO268507    71   1   62 days 0.35 M-v 3Eh MPCALB     3803          2013 LH25          20130809
K13L25K 21.5   0.15 K1528 330.36964  202.96355   92.93227   18.10308  0.2162690  0.58897958   1.4095134  5 MPO271297    63   1   82 days 0.29 M-v 38h MPCALB     2804          2013 LK25          20130831
K13L25L 22.7   0.15 K1528 149.53751   73.99289  259.50750   10.77824  0.6834856  0.26698209   2.3886249  8 MPO307075    32   1    3 days 0.59 M-v 3Eh MPCW       2803          2013 LL25          20130613
K13L28T 22.5   0.15 K1528 282.91194  273.36338  262.93987   22.92607  0.6188078  0.42590450   1.7495562  5 MPO271297    31   1   62 days 0.41 M-v 3Eh MPCALB     2803          2013 LT28          20130813
K13L28U  7.9   0.15 K1528 359.10533  152.94757  276.11853  125.41189  0.9638973  0.00026404 240.6354091  2 MPO301792    56   2 2013-2014 0.39 M-v 38h MPCADO     000A          2013 LU28          20140628
K13L28V 18.8   0.15 K1528  23.65623   24.30291  139.10297   24.04871  0.6886176  0.54471780   1.4848697  2 MPO322285    88   2 2013-2014 0.31 M-v 3Eh MPCALB     0803          2013 LV28          20141112
K13L28W 18.8   0.15 K1528 216.37540  237.27818  136.39052   30.67869  0.5867025  0.45349343   1.6778587  3 MPO288535   101   2 2013-2014 0.38 M-v 3Eh MPCALB     0803          2013 LW28          20140223
K13L28X 21.7   0.15 K1528  88.12484  345.78102   76.68041   49.97603  0.4520488  0.98328030   1.0015773  3 MPO295877    26   2 2013-2014 0.26 M-v 3Eh MPCW       0803          2013 LX28          20140527
K13L28Y 24.5   0.15 K1528 188.88260   82.86614  262.57405   15.39998  0.6606778  0.34247778   2.0232418  7 MPO263338    27   1    6 days 0.25 M-v 3Eh MPCADO     2803          2013 LY28          20130617
K13L28Z 22.9   0.15 K1528 211.31156   61.09353  122.39669   10.06484  0.6320817  0.32155077   2.1100999  4 MPO266959    83   1   32 days 0.35 M-v 3Eh MPCADO     2803          2013 LZ28          20130715
K13L29G 14.9   0.15 K1528   7.48195  201.95368   66.79934   15.39087  0.7896310  0.01420626  16.8842919  1 MPO317790    37   2 2013-2014 0.25 M-v 38h MPCW       000A          2013 LG29          20140920
K13L29H 24.6   0.15 K1528 304.19365  209.31499   91.27576   13.91866  0.3004704  0.53797144   1.4972577  7 MPO266959    35   1   15 days 0.26 M-v 3Eh MPCADO     2804          2013 LH29          20130629
K13L31K 19.2   0.15 K1528 161.05033  172.81547  207.95638   14.94781  0.7814655  0.30204894   2.1999755  6 MPO268508   132   1   30 days 0.36 M-v 3Eh MPCS       2803          2013 LK31          20130714
K13L31L 20.1   0.15 K1528 130.62489  276.37484  208.14191   17.73014  0.1504873  0.61199347   1.3739519  5 MPO268508    46   1   55 days 0.31 M-v 38h MPCALB     2804          2013 LL31          20130809
K13L31M 20.2   0.15 K1528 150.90714  251.07067  103.21997    1.74977  0.6535507  0.28845210   2.2685773  4 MPO279270   119   2 2013-2014 0.42 M-v 3Eh MPCALB     8803          2013 LM31          20140111
K13L31N 20.0   0.15 K1528 157.30522  278.57294  101.04201   23.19062  0.8026222  0.29098647   2.2553858  2 MPO283475   181   2 2013-2014 0.36 M-v 3Eh MPCW       8803          2013 LN31          20140205
K13M00Q 23.8   0.15 K1528 176.01279  168.04067  105.35547    4.42219  0.5111230  0.29542406   2.2327433  5 MPO268508    36   1   51 days 0.28 M-v 3Eh MPCALB     2804          2013 MQ            20130807
K13M00R 21.7   0.15 K1528 132.56708  207.34059  266.88236   20.24418  0.4908775  1.20727797   0.8735033  3 MPO301792    47   2 2013-2014 0.29 M-v 3Eh MPCALB     0802          2013 MR            20140729
K13M03L 22.4   0.15 K1528 185.63153    4.41707  252.16072    9.63876  0.5342542  0.30566833   2.1825746  3 MPO271297   186   1   70 days 0.40 M-v 3Eh MPCALB     2804          2013 ML3           20130828
K13M05X 18.9   0.15 K1528 166.36085   52.75267  250.38712    6.60134  0.4475235  0.28783869   2.2717991  1 MPO277237   242   2 2006-2013 0.39 M-v 38h MPCALB     0804          2013 MX5           20131104
K13M05Y 19.5   0.15 K1528 233.88332  278.89464  102.95265    2.99603  0.4530030  0.46023451   1.6614346  3 MPO286701    95   1  245 days 0.38 M-v 3Eh MPCALB     A803          2013 MY5           20140218
K13M05Z 20.1   0.15 K1528 235.68635  274.13408   93.53275   29.14646  0.1767777  0.50951545   1.5524983  4 MPO271297    43   1   73 days 0.26 M-v 38h MPCALB     2804          2013 MZ5           20130830
K13M06D 21.7   0.15 K1528 191.37796    1.59400   91.96154   28.30166  0.4337347  1.24975124   0.8535985  6 MPO265941    39   1   26 days 0.18 M-v 3Eh MPCADO     2802          2013 MD6           20130715
K13M06R 19.0   0.15 K1528 110.74311  216.37777  114.62155   36.17352  0.5461980  0.22113867   2.7082760  3 MPO273982    85   1  108 days 0.35 M-v 38h MPCALB     2804          2013 MR6           20131005
K13M06W 19.8   0.15 K1528 288.66881  191.06108    0.84106    5.52097  0.4843880  0.43206829   1.7328772  2 MPO312415    59   2 2013-2014 0.27 M-v 3Eh MPCW       0803          2013 MW6           20141101
K13M06Y 17.9   0.15 K1528  15.17890    9.76842  124.99415   52.24448  0.5030364  0.51968713   1.5321739  2 MPO322286   116   2 2013-2014 0.29 M-v 3Eh MPCALB     1803          2013 MY6           20141202
K13M07H 19.5   0.15 K1528 160.87307  257.82175   87.30478   55.73611  0.5735589  0.31298573   2.1484225  2 MPO279271    76   2 2013-2014 0.36 M-v 3Eh MPCALB     0803          2013 MH7           20140102
K13M08D 24.2   0.15 K1528 215.51083   68.51054  134.18063    1.72404  0.5786723  0.33228062   2.0644263  7 MPO265944    12   1   14 days 0.10 M-v 3Eh MPCW       2803          2013 MD8           20130703
K13M10V 22.0   0.15 K1528 224.20909   31.28188  208.92554    8.00679  0.4253455  0.35426113   1.9781249  7 MPO271297    13   1   45 days 0.31 M-v 38h MPCALB     2804          2013 MV10          20130813
K13M11P 21.8   0.15 K1528 180.66718  341.29380  293.67497    9.06506  0.4312354  0.30119595   2.2041271  4 MPO271297    54   1   69 days 0.26 M-v 38h MPCADO     2804          2013 MP11          20130907
K13M11R 21.6   0.15 K1528 318.28975  104.98506   92.26981   16.52715  0.3823030  0.47778262   1.6205004  7 MPO265945     7   1    5 days 0.15 M-v 3Eh MPCR       2804          2013 MR11          20130705
K13M11S 20.8   0.15 K1528 291.18921  301.48649  277.41834   16.38403  0.3643907  0.43049837   1.7370876  3 MPO317791    18   2 2013-2014 0.39 M-v 38h MPCW       0804          2013 MS11          20141223
K13N00J 21.9   0.15 K1528 321.66223  140.23272  238.64750    3.93905  0.2836890  0.67555914   1.2863539  2 MPO322286   214   1  222 days 0.34 M-v 3Eh MPCALB     A803          2013 NJ            20140208
K13N00K 21.4   0.15 K1528 141.52186   66.24253  266.04055    3.26748  0.4636317  0.26869249   2.3784774  3 MPO277238    85   1  130 days 0.27 M-v 38h MPCALB     2804          2013 NK            20131108
K13N00U 21.2   0.15 K1528 142.51429  185.84600  111.46511    5.80550  0.4716236  0.25771461   2.4455508  4 MPO268509    33   1   27 days 0.25 M-v 38h MPCALB     2804          2013 NU            20130728
K13N00V 20.2   0.15 K1528 324.88024  227.79136  275.63065   29.29292  0.5110801  1.05031391   0.9584953  2 MPO303402   174   3 1983-2014 0.31 M-v 3Eh MPCALB     8802          2013 NV            20140725
K13N00W 22.3   0.15 K1528 107.37319  113.29527  240.17860    7.06666  0.6797136  0.21003312   2.8029210  4 MPO277238    42   1  120 days 0.28 M-v 3Eh MPCALB     2803          2013 NW            20131030
K13N00X 22.0   0.15 K1528  62.63775  312.54167  112.70878    6.32304  0.1698530  0.93966505   1.0323350  3 MPO300682   127   2 2013-2014 0.28 M-v 3Eh MPCALB     0803          2013 NX            20140630
K13N04H 25.8   0.15 K1528 128.48518  233.18227   98.31170    4.43219  0.6603791  0.23511924   2.5998239  4 MPO265947    21   1    4 days 0.25 M-v 3Eh MPCW       2803          2013 NH4           20130705
K13N04J 27.4   0.15 K1528  65.21709  238.49061  115.60907    1.32232  0.2030583  0.81646129   1.1337370  5 MPO265947    14   1    4 days 0.35 M-v 3Eh MPCALB     2803          2013 NJ4           20130706
K13N04K 18.7   0.15 K1528 102.31407   50.53339   33.81473    6.52848  0.5498523  0.95250697   1.0230353  3 MPO307076   105   2 2013-2014 0.29 M-v 3Eh MPCW       8803          2013 NK4           20140809
K13N06G 22.2   0.15 K1528 190.41886  358.23849  273.75433    7.97830  0.4020043  0.31613879   2.1341135  4 MPO271297    36   1   42 days 0.33 M-v 38h MPCALB     2804          2013 NG6           20130813
K13N06H 23.3   0.15 K1528  98.63157   69.90149   98.41293   24.16512  0.5875054  0.70964618   1.2448245  6 MPO285772    39   1   13 days 0.30 M-v 3Eh MPCALB     2803          2013 NH6           20130716
